{
  "type": "FeatureCollection",
  "features": [
    {
      "type": "Feature",
      "properties": {
        "norad_id": 37499,
        "name": "COSMOS 2251 DEB",
        "group": "cosmos-2251-debris",
        "lat": 71.8002058349528,
        "lon": 40.57933737533922,
        "alt_km": 752.383100492717,
        "timestamp": "2025-12-02T23:34:15.915030+00:00",
        "meta_object_name": "COSMOS 2251 DEB",
        "meta_object_id": "1993-036BMC",
        "meta_epoch": "2025-12-02T08:07:49.984608",
        "meta_mean_motion": 14.34326132,
        "meta_eccentricity": 0.00266,
        "meta_inclination": 74.0373,
        "meta_ra_of_asc_node": 341.2316,
        "meta_arg_of_pericenter": 60.4531,
        "meta_mean_anomaly": 299.9268,
        "meta_ephemeris_type": 0,
        "meta_classification_type": "U",
        "meta_norad_cat_id": 37499,
        "meta_element_set_no": 999,
        "meta_rev_at_epoch": 85000,
        "meta_bstar": 0.00020769,
        "meta_mean_motion_dot": 5.6e-06,
        "meta_mean_motion_ddot": 0,
        "tle_line1": "1 37499U 93036BMC 25336.33877297  .00000560  00000+0  20769-3 0  9995",
        "tle_line2": "2 37499  74.0373 341.2316 0026600  60.4531 299.9268 14.34326132850008"
      },
      "geometry": {
        "type": "Point",
        "coordinates": [
          40.57933737533922,
          71.8002058349528
        ]
      }
    },
    {
      "type": "Feature",
      "properties": {
        "norad_id": 37528,
        "name": "COSMOS 2251 DEB",
        "group": "cosmos-2251-debris",
        "lat": 28.54495534801905,
        "lon": 149.43278657717374,
        "alt_km": 725.2118775801355,
        "timestamp": "2025-12-02T23:34:15.915041+00:00",
        "meta_object_name": "COSMOS 2251 DEB",
        "meta_object_id": "1993-036BNH",
        "meta_epoch": "2025-12-01T04:23:44.422656",
        "meta_mean_motion": 14.50451173,
        "meta_eccentricity": 0.0020905,
        "meta_inclination": 74.0362,
        "meta_ra_of_asc_node": 143.8539,
        "meta_arg_of_pericenter": 293.085,
        "meta_mean_anomaly": 66.8106,
        "meta_ephemeris_type": 0,
        "meta_classification_type": "U",
        "meta_norad_cat_id": 37528,
        "meta_element_set_no": 999,
        "meta_rev_at_epoch": 85763,
        "meta_bstar": 0.0005005,
        "meta_mean_motion_dot": 1.935e-05,
        "meta_mean_motion_ddot": 0,
        "tle_line1": "1 37528U 93036BNH 25335.18315304  .00001935  00000+0  50050-3 0  9999",
        "tle_line2": "2 37528  74.0362 143.8539 0020905 293.0850  66.8106 14.50451173857632"
      },
      "geometry": {
        "type": "Point",
        "coordinates": [
          149.43278657717374,
          28.54495534801905
        ]
      }
    },
    {
      "type": "Feature",
      "properties": {
        "norad_id": 37530,
        "name": "COSMOS 2251 DEB",
        "group": "cosmos-2251-debris",
        "lat": 37.873532202275726,
        "lon": 158.65050465509523,
        "alt_km": 771.4426417311352,
        "timestamp": "2025-12-02T23:34:15.915052+00:00",
        "meta_object_name": "COSMOS 2251 DEB",
        "meta_object_id": "1993-036BNK",
        "meta_epoch": "2025-11-30T19:50:14.646624",
        "meta_mean_motion": 14.34478642,
        "meta_eccentricity": 0.00255427,
        "meta_inclination": 74.0356,
        "meta_ra_of_asc_node": 355.4602,
        "meta_arg_of_pericenter": 61.4891,
        "meta_mean_anomaly": 111.2815,
        "meta_ephemeris_type": 0,
        "meta_classification_type": "U",
        "meta_norad_cat_id": 37530,
        "meta_element_set_no": 999,
        "meta_rev_at_epoch": 85061,
        "meta_bstar": 0.00021143929,
        "meta_mean_motion_dot": 5.72e-06,
        "meta_mean_motion_ddot": 0,
        "tle_line1": "1 37530U 93036BNK 25334.82655841  .00000572  00000+0  21144-3 0  9993",
        "tle_line2": "2 37530  74.0356 355.4602 0025542  61.4891 111.2815 14.34478642850619"
      },
      "geometry": {
        "type": "Point",
        "coordinates": [
          158.65050465509523,
          37.873532202275726
        ]
      }
    },
    {
      "type": "Feature",
      "properties": {
        "norad_id": 37532,
        "name": "COSMOS 2251 DEB",
        "group": "cosmos-2251-debris",
        "lat": 2.6660793982486695,
        "lon": -125.43334682995591,
        "alt_km": 743.0400052696632,
        "timestamp": "2025-12-02T23:34:15.915062+00:00",
        "meta_object_name": "COSMOS 2251 DEB",
        "meta_object_id": "1993-036BNM",
        "meta_epoch": "2025-11-30T12:27:06.962976",
        "meta_mean_motion": 14.42376365,
        "meta_eccentricity": 0.00155828,
        "meta_inclination": 74.0506,
        "meta_ra_of_asc_node": 238.3668,
        "meta_arg_of_pericenter": 340.6914,
        "meta_mean_anomaly": 196.4661,
        "meta_ephemeris_type": 0,
        "meta_classification_type": "U",
        "meta_norad_cat_id": 37532,
        "meta_element_set_no": 999,
        "meta_rev_at_epoch": 84739,
        "meta_bstar": 0.00024978235,
        "meta_mean_motion_dot": 8e-06,
        "meta_mean_motion_ddot": 0,
        "tle_line1": "1 37532U 93036BNM 25334.51883059  .00000800  00000+0  24978-3 0  9997",
        "tle_line2": "2 37532  74.0506 238.3668 0015582 340.6914 196.4661 14.42376365847393"
      },
      "geometry": {
        "type": "Point",
        "coordinates": [
          -125.43334682995591,
          2.6660793982486695
        ]
      }
    },
    {
      "type": "Feature",
      "properties": {
        "norad_id": 37533,
        "name": "COSMOS 2251 DEB",
        "group": "cosmos-2251-debris",
        "lat": 69.65633269065268,
        "lon": -100.61414836826589,
        "alt_km": 957.7763734849805,
        "timestamp": "2025-12-02T23:34:15.915072+00:00",
        "meta_object_name": "COSMOS 2251 DEB",
        "meta_object_id": "1993-036BNN",
        "meta_epoch": "2025-12-01T21:41:44.265120",
        "meta_mean_motion": 14.12078799,
        "meta_eccentricity": 0.01585574,
        "meta_inclination": 74.0695,
        "meta_ra_of_asc_node": 210.9037,
        "meta_arg_of_pericenter": 269.9703,
        "meta_mean_anomaly": 88.3269,
        "meta_ephemeris_type": 0,
        "meta_classification_type": "U",
        "meta_norad_cat_id": 37533,
        "meta_element_set_no": 999,
        "meta_rev_at_epoch": 62768,
        "meta_bstar": 0.0015153786,
        "meta_mean_motion_dot": 3.103e-05,
        "meta_mean_motion_ddot": 0,
        "tle_line1": "1 37533U 93036BNN 25335.90398455  .00003103  00000+0  15154-2 0  9997",
        "tle_line2": "2 37533  74.0695 210.9037 0158557 269.9703  88.3269 14.12078799627686"
      },
      "geometry": {
        "type": "Point",
        "coordinates": [
          -100.61414836826589,
          69.65633269065268
        ]
      }
    },
    {
      "type": "Feature",
      "properties": {
        "norad_id": 37535,
        "name": "COSMOS 2251 DEB",
        "group": "cosmos-2251-debris",
        "lat": 5.006889058121214,
        "lon": -89.35141552345402,
        "alt_km": 689.7164920957903,
        "timestamp": "2025-12-02T23:34:15.915082+00:00",
        "meta_object_name": "COSMOS 2251 DEB",
        "meta_object_id": "1993-036BNQ",
        "meta_epoch": "2025-12-02T08:05:47.364000",
        "meta_mean_motion": 14.58320783,
        "meta_eccentricity": 0.0028282,
        "meta_inclination": 74.0235,
        "meta_ra_of_asc_node": 93.3143,
        "meta_arg_of_pericenter": 233.4683,
        "meta_mean_anomaly": 157.8217,
        "meta_ephemeris_type": 0,
        "meta_classification_type": "U",
        "meta_norad_cat_id": 37535,
        "meta_element_set_no": 999,
        "meta_rev_at_epoch": 85173,
        "meta_bstar": 0.0011719,
        "meta_mean_motion_dot": 5.426e-05,
        "meta_mean_motion_ddot": 0,
        "tle_line1": "1 37535U 93036BNQ 25336.33735375  .00005426  00000+0  11719-2 0  9996",
        "tle_line2": "2 37535  74.0235  93.3143 0028282 233.4683 157.8217 14.58320783851736"
      },
      "geometry": {
        "type": "Point",
        "coordinates": [
          -89.35141552345402,
          5.006889058121214
        ]
      }
    },
    {
      "type": "Feature",
      "properties": {
        "norad_id": 37537,
        "name": "COSMOS 2251 DEB",
        "group": "cosmos-2251-debris",
        "lat": 18.583701104808842,
        "lon": -71.35884161732675,
        "alt_km": 742.122894982258,
        "timestamp": "2025-12-02T23:34:15.915093+00:00",
        "meta_object_name": "COSMOS 2251 DEB",
        "meta_object_id": "1993-036BNS",
        "meta_epoch": "2025-12-02T05:06:31.670784",
        "meta_mean_motion": 14.37465624,
        "meta_eccentricity": 0.0049967,
        "meta_inclination": 74.0119,
        "meta_ra_of_asc_node": 284.5266,
        "meta_arg_of_pericenter": 67.5686,
        "meta_mean_anomaly": 293.0749,
        "meta_ephemeris_type": 0,
        "meta_classification_type": "U",
        "meta_norad_cat_id": 37537,
        "meta_element_set_no": 999,
        "meta_rev_at_epoch": 84882,
        "meta_bstar": 0.00030745,
        "meta_mean_motion_dot": 9.07e-06,
        "meta_mean_motion_ddot": 0,
        "tle_line1": "1 37537U 93036BNS 25336.21286656  .00000907  00000+0  30745-3 0  9998",
        "tle_line2": "2 37537  74.0119 284.5266 0049967  67.5686 293.0749 14.37465624848821"
      },
      "geometry": {
        "type": "Point",
        "coordinates": [
          -71.35884161732675,
          18.583701104808842
        ]
      }
    }
  ]
}